{
    "links": {
        "self": "http://www.neowsapp.com/rest/v1/neo/3751528?api_key=iIulBulltgU6a56xZRHN4H3l9WmuAYTsLGpBGhQ2"
    },
    "id": "3751528",
    "neo_reference_id": "3751528",
    "name": "(2016 GF207)",
    "designation": "2016 GF207",
    "nasa_jpl_url": "http://ssd.jpl.nasa.gov/sbdb.cgi?sstr=3751528",
    "absolute_magnitude_h": 25.4,
    "estimated_diameter": {
        "kilometers": {
            "estimated_diameter_min": 0.022108281,
            "estimated_diameter_max": 0.0494356193
        },
        "meters": {
            "estimated_diameter_min": 22.1082810359,
            "estimated_diameter_max": 49.435619262
        },
        "miles": {
            "estimated_diameter_min": 0.0137374447,
            "estimated_diameter_max": 0.0307178602
        },
        "feet": {
            "estimated_diameter_min": 72.5337327539,
            "estimated_diameter_max": 162.1903570994
        }
    },
    "is_potentially_hazardous_asteroid": false,
    "close_approach_data": [
        {
            "close_approach_date": "2016-04-11",
            "close_approach_date_full": "2016-Apr-11 18:27",
            "epoch_date_close_approach": 1460399220000,
            "relative_velocity": {
                "kilometers_per_second": "10.3736281343",
                "kilometers_per_hour": "37345.0612833986",
                "miles_per_hour": "23204.7687735651"
            },
            "miss_distance": {
                "astronomical": "0.0578328475",
                "lunar": "22.4969776775",
                "kilometers": "8651670.802034825",
                "miles": "5375898.952637585"
            },
            "orbiting_body": "Earth"
        }
    ],
    "orbital_data": {
        "orbit_id": "7",
        "orbit_determination_date": "2017-04-06 08:26:37",
        "first_observation_date": "2016-04-10",
        "last_observation_date": "2016-04-19",
        "data_arc_in_days": 9,
        "observations_used": 19,
        "orbit_uncertainty": "8",
        "minimum_orbit_intersection": ".0561729",
        "jupiter_tisserand_invariant": "4.144",
        "epoch_osculation": "2457489.5",
        "eccentricity": ".3616361640656184",
        "semi_major_axis": "1.657545784659311",
        "inclination": "17.3214144496477",
        "ascending_node_longitude": "200.3949153992234",
        "orbital_period": "779.4651935049728",
        "perihelion_distance": "1.058117285331982",
        "perihelion_argument": "1.790405510284889",
        "aphelion_distance": "2.256974283986639",
        "perihelion_time": "2457491.107042704037",
        "mean_anomaly": "359.2577790794585",
        "mean_motion": ".4618551322108564",
        "equinox": "J2000",
        "orbit_class": {
            "orbit_class_type": "AMO",
            "orbit_class_description": "Near-Earth asteroid orbits similar to that of 1221 Amor",
            "orbit_class_range": "1.017 AU < q (perihelion) < 1.3 AU"
        }
    },
    "is_sentry_object": false
}